STRONG GROUND MOTION RECORDS OF TURKIYE
PLACE                   : BINGöL GENC MERKEZ SAGLIK OCAGI
EARTHQUAKE DATE         : 2018/03/07 05:08:23 (GMT)
EPICENTER COORDINATES   : 39.06850N-40.29510E
EARTHQUAKE DEPTH (km)   : 7.02
EARTHQUAKE MAGNITUDE    : 3.3 ML
STATION ID              : 1210
STATION COORDINATES     : 38.75008N-40.55931E
STATION ALTITUDE (m)    : 1018
RECORDER TYPE           : Guralp cmg5td
RECORDER SERIAL NO      : T5J57/A1008
RECORD TIME             : 07/03/2018 05:08:19.00 (GMT)
NUMBER OF DATA          : 5456
SAMPLING INTERVAL (sec) : 0.01
RAW PGA VALUES (gal)    : (N-S) 0.316125 (E-W) 0.331524 (U-D) 0.363887
Copyright EARTHQUAKE DEPARTMENT
DISASTER AND EMERGENCY MANAGEMENT PRESIDENCY
       N-S          E-W          U-D
[...]
   -0.100431     -0.019976     0.002257
   -0.127019      0.045588    -0.016555
   -0.102864      0.084803    -0.042405
   -0.103392      0.123670    -0.131040
   -0.069627      0.186402    -0.135021
    0.037962      0.232093    -0.021638
    0.105852      0.211823     0.095293
    0.067422      0.113957     0.126427
    0.068796      0.016585     0.090020
    0.149983      0.012104     0.127733
    0.111015      0.033335     0.131192
   -0.075080     -0.017290     0.013400
   -0.263198     -0.151826    -0.166445
   -0.316125     -0.274206    -0.249888
   -0.217184     -0.264991    -0.143772
   -0.062640     -0.190706    -0.003708
    0.072476     -0.108970     0.092118
    0.165982     -0.020177     0.097925
    0.192026      0.045982     0.098698
    0.087759      0.025659     0.085926
   -0.056922     -0.040032     0.026915
   -0.091123     -0.061955     0.010025
   -0.016884     -0.045604     0.050143
    0.088481     -0.014524     0.091252
    0.106800      0.053083     0.054347
    0.030809      0.116253    -0.015879
   -0.027088      0.111458    -0.083204
   -0.024973      0.086061    -0.158819
    0.022363      0.115706    -0.132025
    0.040141      0.172313    -0.023098
    0.018216      0.121283    -0.011409
    0.065059      0.036793    -0.041541
    0.156453     -0.000110    -0.006439
    0.190663      0.019479     0.085137
    0.165353      0.065917     0.078880
    0.136070      0.035641    -0.018573
    0.137830     -0.035996    -0.039739
    0.113896     -0.094438     0.032398
   -0.014158     -0.137970     0.089727
   -0.142915     -0.098784     0.046626
   -0.175835      0.066565     0.015254
   -0.146042      0.214330     0.073346
   -0.059015      0.239530     0.104787
   -0.012292      0.178828     0.024986
   -0.031907      0.110279    -0.105864
   -0.044867      0.035507    -0.179487
   -0.091566     -0.101662    -0.182408
   -0.164347     -0.233705    -0.161105
   -0.186745     -0.246458    -0.109043
   -0.127961     -0.180133    -0.030746
   -0.022796     -0.131965     0.095416
    0.064717     -0.112549     0.176980
    0.126576     -0.086370     0.209689
    0.097367     -0.085372     0.207585
   -0.017164     -0.071442     0.143114
   -0.050417      0.039305     0.099723
    0.029312      0.157158     0.038851
    0.108214      0.174751    -0.047741
    0.079260      0.055616    -0.163942
    0.026088     -0.072833    -0.209732
    0.004124     -0.132980    -0.227386
   -0.004332     -0.084604    -0.158972
    0.002837      0.015578     0.036738
    0.025492      0.077020     0.224943
    0.077721      0.061734     0.274048
    0.042648     -0.016678     0.095349
   -0.076053     -0.044027    -0.081557
   -0.127988     -0.035450    -0.145246
   -0.071243     -0.031165    -0.091450
   -0.019196     -0.109380    -0.066261
    0.017603     -0.131995    -0.056883
    0.108717      0.022245     0.040002
    0.123592      0.233402     0.096258
    0.004329      0.331524     0.044466
   -0.120485      0.258855    -0.000820
   -0.153735      0.099271     0.012752
   -0.076738     -0.084997     0.010784
   -0.026028     -0.188337    -0.028704
   -0.049241     -0.200872    -0.091554
   -0.024096     -0.118758    -0.105926
   -0.003709     -0.034607    -0.078695
   -0.055448     -0.003890    -0.102895
   -0.037945      0.048351    -0.094112
    0.074028      0.079709     0.045295
    0.118644      0.081909     0.202617
    0.122965      0.028629     0.259950
    0.165694     -0.026316     0.275981
    0.166819     -0.030342     0.239122
    0.060051      0.026915     0.106597
   -0.102022      0.020681    -0.121425
   -0.213524     -0.041772    -0.304201
   -0.232057     -0.079138    -0.342311
   -0.111524     -0.060696    -0.232840
    0.068706      0.025963    -0.046412
    0.128515      0.146152     0.014460
    0.086640      0.273178     0.042933
    0.014606      0.267008     0.058673
   -0.065722      0.128335     0.091769
   -0.141075     -0.077453     0.079040
   -0.134195     -0.165192     0.059883
   -0.046392     -0.117948     0.045076
    0.034330     -0.016058     0.029213
    0.116475     -0.012610     0.024800
    0.223594     -0.074229    -0.007823
    0.218671     -0.109776    -0.046593
    0.072185     -0.133436    -0.112025
   -0.051250     -0.148562    -0.151444
   -0.071273     -0.129057    -0.149733
   -0.056526     -0.073789    -0.069689
   -0.032879     -0.048247     0.073188
    0.045623     -0.102064     0.199012
    0.106761     -0.213924     0.201737
    0.099664     -0.239346     0.104753
    0.034251     -0.139733    -0.070164
   -0.023208      0.096604    -0.169662
   -0.068265      0.224154    -0.167161
   -0.077877      0.238094     0.017674
   -0.061593      0.181223     0.220584
   -0.023825      0.187166     0.286830
    0.006065      0.253589     0.203522
   -0.008261      0.270206    -0.039434
    0.005261      0.174343    -0.212901
   -0.028548     -0.011047    -0.271210
   -0.087737     -0.095960    -0.221352
   -0.061107     -0.066173    -0.152631
   -0.032800      0.044362    -0.080277
   -0.071403      0.043367    -0.032997
   -0.088189     -0.022484     0.044213
   -0.039320     -0.108881     0.134212
    0.067960     -0.140547     0.167992
    0.178915     -0.104685     0.185642
    0.176528     -0.060023     0.150491
    0.097789     -0.036630     0.051639
    0.062527     -0.075590    -0.069763
    0.044897     -0.095436    -0.102294
    0.010129     -0.058622    -0.035038
   -0.050744      0.027220     0.026252
   -0.150469      0.111236     0.038512
   -0.193409      0.106873     0.064453
   -0.117778     -0.039618     0.101663
   -0.017080     -0.179694     0.042866
    0.019302     -0.145107    -0.067633
    0.016898      0.016934    -0.110973
   -0.013272      0.166657    -0.077051
   -0.055853      0.221914    -0.048575
   -0.053439      0.170986    -0.006835
   -0.001358      0.070073     0.060052
    0.045265     -0.009546     0.099192
    0.037907     -0.041620     0.053832
    0.031881     -0.033463     0.022445
    0.012585     -0.031566     0.034224
   -0.000801     -0.061371     0.030970
    0.019650     -0.087900     0.024646
    0.020832     -0.058176     0.002136
    0.000182     -0.005043    -0.049171
   -0.046970      0.007817    -0.155244
   -0.081442     -0.029899    -0.201942
   -0.059318     -0.083619    -0.182476
    0.040798     -0.064381    -0.096891
    0.149345      0.010124     0.034039
    0.184389      0.092216     0.138949
    0.154837      0.147085     0.122128
    0.127867      0.133148     0.038770
    0.098195      0.054435     0.006743
    0.049827     -0.049514     0.037859
    0.017221     -0.090884     0.103993
   -0.006201     -0.059001     0.103707
   -0.022357     -0.039142     0.044084
   -0.023318     -0.066932    -0.047363
   -0.015158     -0.064934    -0.106211
   -0.021934     -0.027932    -0.105400
   -0.032581     -0.027440    -0.070370
   -0.028080     -0.049355     0.016237
   -0.032048     -0.083802     0.065081
   -0.082607     -0.102185     0.036921
   -0.134255     -0.080639    -0.015369
   -0.150261     -0.001182    -0.038541
   -0.161020      0.083873    -0.038329
   -0.147689      0.101018    -0.003415
   -0.099650      0.097029     0.053910
   -0.043145      0.119375     0.063529
   -0.000339      0.152351     0.033630
    0.036449      0.153615    -0.010063
    0.085635      0.120006    -0.016783
    0.114649      0.035763    -0.017884
    0.085056     -0.082638    -0.047995
    0.069511     -0.173471    -0.147715
    0.125475     -0.171673    -0.199458
    0.164439     -0.092661    -0.131537
    0.144208      0.014716     0.010772
    0.107447      0.066199     0.159759
    0.074023      0.030269     0.216340
    0.062473     -0.005580     0.202080
    0.056648     -0.007725     0.135383
    0.026544     -0.006845     0.082961
   -0.042937     -0.019967     0.040142
   -0.142120     -0.006184    -0.019605
   -0.210215      0.048087    -0.079291
   -0.230134      0.097694    -0.100327
   -0.229373      0.079574    -0.084286
   -0.186001      0.070535    -0.070994
   -0.066131      0.111578    -0.014030
    0.039015      0.110706     0.012046
    0.056549      0.011849    -0.013183
    0.014268     -0.142508    -0.037198
   -0.000157     -0.207139    -0.056315
    0.080921     -0.103051    -0.027912
    0.176522      0.028241     0.010960
    0.181600      0.073157     0.029512
    0.097473      0.082248     0.034009
    0.001238      0.073642     0.056912
   -0.067837      0.039029     0.034745
   -0.102260     -0.021514    -0.022067
   -0.097146     -0.058535    -0.064318
   -0.040028     -0.029309    -0.071253
    0.005708      0.006251    -0.022750
    0.010631      0.012721     0.054378
    0.005770      0.022553     0.109984
   -0.006015      0.029061     0.081182
   -0.006372      0.052339     0.057110
   -0.007740      0.060084     0.044948
   -0.022898      0.009911     0.003577
   -0.021814     -0.049791    -0.033809
   -0.007251     -0.064693    -0.058562
    0.044891     -0.037216    -0.049632
    0.086883     -0.022335    -0.024775
    0.040987     -0.047263    -0.029514
   -0.021744     -0.070494    -0.039652
   -0.048893     -0.009894    -0.020004
   -0.021246      0.056905     0.009085
    0.055683      0.049293     0.087564
    0.110740      0.001305     0.185737
    0.083938     -0.062457     0.167790
   -0.005864     -0.138684    -0.001202
   -0.131670     -0.206946    -0.240721
   -0.200813     -0.204975    -0.362082
   -0.139670     -0.111878    -0.261570
   -0.026141      0.009541    -0.020631
    0.022439      0.078973     0.167179
    0.015639      0.066937     0.220126
    0.016038      0.028826     0.177825
    0.037645      0.052372     0.113300
    0.067479      0.107551     0.060020
    0.109323      0.097949     0.020743
    0.117934      0.009051    -0.030166
    0.065133     -0.062477    -0.074085
    0.001306     -0.071793    -0.095400
   -0.065751     -0.052321    -0.111462
   -0.092524     -0.032488    -0.092210
   -0.037228     -0.008859    -0.063928
    0.092547      0.012754     0.002402
    0.167343     -0.024025     0.053564
    0.106467     -0.100699     0.057914
   -0.002543     -0.132965     0.028536
   -0.057999     -0.107309     0.000678
   -0.065454     -0.074299    -0.012397
   -0.050282     -0.048982     0.033742
   -0.020279     -0.001234     0.138217
   -0.007891      0.063189     0.156459
   -0.044726      0.105067     0.085187
   -0.090046      0.100853    -0.019992
   -0.063614      0.084772    -0.096356
   -0.015999      0.107591    -0.155025
    0.015125      0.156857    -0.169467
    0.018779      0.160990    -0.084215
   -0.016405      0.078339     0.001230
   -0.048476     -0.029873     0.030023
   -0.030550     -0.091668     0.015679
    0.022599     -0.071023     0.051548
    0.054232     -0.010705     0.116514
    0.041011      0.030125     0.115508
    0.026287      0.040560     0.041671
    0.049868      0.052263    -0.029586
    0.100043      0.044135    -0.016116
    0.108921      0.029780     0.031490
    0.049625      0.033731     0.055672
   -0.028713      0.052240    -0.001789
   -0.042756      0.061367    -0.042469
   -0.023155     -0.012658    -0.044974
   -0.064204     -0.101876    -0.092002
   -0.103945     -0.126758    -0.149421
   -0.085421     -0.085517    -0.132042
   -0.053265     -0.047631    -0.028288
   -0.074839     -0.014552     0.070602
   -0.072082      0.012934     0.106014
    0.022420      0.049028     0.127908
    0.138213      0.111336     0.175280
    0.195813      0.143833     0.177625
    0.129697      0.130012     0.087675
   -0.001192      0.073881    -0.049757
   -0.075921      0.030248    -0.141116
   -0.056002      0.006617    -0.176436
    0.003313      0.004972    -0.191803
    0.036180      0.037252    -0.180808
    0.002720      0.090603    -0.140159
   -0.061523      0.136516    -0.044582
   -0.078261      0.090957     0.052321
   -0.034662     -0.029766     0.102939
    0.028858     -0.124436     0.102661
    0.080852     -0.147342     0.041500
    0.125956     -0.093582     0.009703
    0.091526     -0.061958    -0.003643
   -0.043138     -0.127855     0.008495
   -0.146105     -0.248841     0.021855
   -0.103925     -0.279253     0.080551
    0.032065     -0.163405     0.167659
    0.101322      0.040741     0.173551
    0.083621      0.196060     0.083506
    0.013907      0.204435    -0.057750
   -0.067643      0.139460    -0.117541
   -0.077654      0.063281    -0.087225
   -0.063291      0.050694    -0.052380
   -0.102901      0.069546    -0.144194
   -0.155211      0.073620    -0.265962
   -0.158746      0.048512    -0.232071
   -0.120179     -0.020239    -0.058322
   -0.038822     -0.072886     0.152058
    0.045435     -0.054993     0.251263
    0.073342      0.041470     0.209121
    0.097281      0.111028     0.139934
    0.106105      0.055725     0.105441
    0.073594     -0.064662     0.108800
    0.040118     -0.125544     0.102644
    0.052398     -0.077205     0.089506
    0.077510      0.011445     0.018330
    0.065332      0.043099    -0.149985
    0.045002      0.002105    -0.325145
    0.028623     -0.058784    -0.363887
    0.015153     -0.110480    -0.220324
   -0.013145     -0.155817    -0.042620
   -0.037173     -0.169424     0.088216
   -0.030800     -0.146692     0.140298
    0.024097     -0.076755     0.135995
    0.107827      0.004715     0.103351
    0.152048      0.073257     0.071703
    0.113211      0.092823     0.043949
    0.024687      0.075903     0.029212
   -0.026613      0.028035    -0.004790
   -0.040901     -0.000616    -0.046969
   -0.075910      0.004816    -0.081113
   -0.144299      0.001267    -0.095298
   -0.169588      0.036169    -0.002738
   -0.174552      0.037813     0.061829
   -0.180722      0.015827     0.061014
   -0.119010     -0.005911     0.016936
   -0.005723      0.061564     0.001612
    0.054071      0.133607     0.012112
    0.024931      0.117851     0.025177
   -0.004551      0.056571     0.072405
   -0.004877     -0.053552     0.026183
    0.032231     -0.116477    -0.049387
    0.115191     -0.113879    -0.107126
    0.162812     -0.067900    -0.112679
    0.132372     -0.042188    -0.079730
    0.049016     -0.057632    -0.082395
   -0.021593     -0.057681    -0.036745
   -0.026735     -0.042983     0.018767
    0.026546      0.006645     0.093120
    0.087000      0.082043     0.132994
    0.077086      0.115039     0.072169
    0.010479      0.093562     0.056067
   -0.091956      0.019586     0.043674
   -0.129655     -0.001286     0.082536
   -0.111244      0.021683     0.094259
   -0.118273      0.045116     0.038810
   -0.103520      0.010368    -0.008681
   -0.110668     -0.068762    -0.076039
   -0.120323     -0.075559    -0.090922
   -0.064760     -0.036030    -0.087338
    0.049843      0.036818    -0.028508
    0.124669      0.047103    -0.009710
    0.107656      0.014481    -0.039077
    0.073048     -0.012895    -0.033535
    0.050316     -0.008341     0.013021
    0.043288      0.025566     0.091228
    0.048236      0.013629     0.048830
    0.067499     -0.021416    -0.045630
    0.080899     -0.076790    -0.106408
    0.076790     -0.089567    -0.105522
    0.066837     -0.051119    -0.059621
    0.037930      0.010957    -0.020883
    0.044534      0.084382     0.064059
    0.051489      0.101736     0.121225
    0.027964      0.059675     0.128406
    0.016187     -0.000607     0.079964
   -0.002223     -0.038668     0.010861
   -0.027462     -0.021590    -0.002186
   -0.044982     -0.021793     0.006636
   -0.029531     -0.057993     0.023179
   -0.033616     -0.085389    -0.007795
   -0.059902     -0.060753    -0.082034
   -0.050247      0.015717    -0.129403
   -0.021878      0.060339    -0.141621
    0.005985      0.064455    -0.076763
    0.015164      0.055221     0.033851
    0.000855      0.069728     0.088345
   -0.020381      0.084528     0.086362
   -0.034057      0.079099     0.058409
   -0.031372      0.038725     0.036773
   -0.059546     -0.019815     0.010050
   -0.102711     -0.067543    -0.018347
   -0.102976     -0.070918    -0.000587
   -0.045337     -0.032384     0.027295
    0.010907     -0.007226     0.001798
    0.036656     -0.000120    -0.034182
    0.035315     -0.029964    -0.041406
   -0.001023     -0.088021    -0.053472
    0.005637     -0.126428    -0.085711
    0.080092     -0.066411    -0.057498
    0.153921      0.029264     0.014699
    0.117191      0.101311     0.069425
    0.026999      0.115990     0.094598
   -0.015498      0.103034     0.086443
    0.005648      0.084304     0.089884
    0.027896      0.021503     0.038295
    0.044415     -0.000017    -0.003203
    0.060243     -0.022009    -0.065111
    0.040527     -0.006561    -0.110369
   -0.028903     -0.028742    -0.145672
   -0.092468     -0.055116    -0.120355
   -0.049272     -0.054031    -0.007115
    0.012568     -0.039738     0.058826
    0.022343      0.006255     0.102690
   -0.025988      0.003556     0.028283
   -0.036999      0.001595    -0.009259
    0.003189     -0.048515    -0.016790
    0.027007     -0.065922     0.032032
    0.015309     -0.095116     0.080100
   -0.034630     -0.082812     0.051277
   -0.044856     -0.000370     0.016597
   -0.031503      0.094400    -0.007824
   -0.073082      0.149757     0.033616
   -0.113819      0.092052     0.058645
   -0.120400      0.005740     0.055010
   -0.116016     -0.075289    -0.037710
   -0.091331     -0.082320    -0.131152
   -0.028882     -0.048302    -0.149256
    0.053941      0.029266    -0.076448
    0.106711      0.103485     0.049479
    0.102255      0.103685     0.142235
    0.042885      0.031493     0.159558
   -0.017528     -0.055353     0.106182
   -0.061243     -0.061222     0.009344
   -0.029422     -0.000642    -0.085732
    0.034948      0.054869    -0.110522
    0.057580      0.059009    -0.092765
    0.025291      0.024955    -0.064610
   -0.016666     -0.015981    -0.022752
   -0.002019     -0.016930     0.047581
    0.014719      0.021104     0.089299
    0.005277      0.028660     0.055688
   -0.033146     -0.002052     0.027584
   -0.066411     -0.039412     0.032229
   -0.069246     -0.062965     0.033878
   -0.037441     -0.087084    -0.003153
    0.032419     -0.101368    -0.046616
    0.100447     -0.083513    -0.025750
    0.100975     -0.044799     0.008793
    0.040356      0.001743     0.033631
   -0.009658      0.021450     0.020535
    0.001763      0.024498     0.014241
    0.056529      0.005284    -0.007440
    0.104722     -0.005308    -0.054186
    0.124431      0.008606    -0.082477
    0.113033      0.044861    -0.077642
    0.069245      0.079929    -0.056868
    0.022490      0.104181    -0.029605
   -0.003439      0.103827     0.001737
